*******************************************************************************
Ephemeris / WWW_USER Fri Mar  7 10:22:11 2025 Pasadena, USA      / Horizons    
*******************************************************************************
Target body name: (2018 RC)                       {source: JPL#21}
Center body name: Earth (399)                     {source: DE441}
Center-site name: Mauna Kea
*******************************************************************************
Start time      : A.D. 2018-Nov-22 03:51:00.0000 UT      
Stop  time      : A.D. 2018-Nov-22 16:25:00.0000 UT      
Step-size       : 1 minutes
*******************************************************************************
Target pole/equ : undefined
Target radii    : undefined                                                    
Center geodetic : 204.5278, 19.8260847, 4.21024   {E-lon(deg),Lat(deg),Alt(km)}
Center cylindric: 204.5278, 6006.35451, 2151.0229 {E-lon(deg),Dxy(km),Dz(km)}
Center pole/equ : ITRF93                          {East-longitude positive}
Center radii    : 6378.137, 6378.137, 6356.752 km {Equator_a, b, pole_c}       
Target primary  : Sun
Vis. interferer : MOON (R_eq= 1737.400) km        {source: DE441}
Rel. light bend : Sun                             {source: DE441}
Rel. lght bnd GM: 1.3271E+11 km^3/s^2                                          
Small-body perts: Yes                             {source: SB441-N16}
Atmos refraction: NO (AIRLESS)
RA format       : HMS
Time format     : CAL 
Calendar mode   : Mixed Julian/Gregorian
RTS-only print  : NO       
EOP file        : eop.250306.p250602                                           
EOP coverage    : DATA-BASED 1962-JAN-20 TO 2025-MAR-06. PREDICTS-> 2025-JUN-01
Units conversion: 1 au= 149597870.700 km, c= 299792.458 km/s, 1 day= 86400.0 s 
Table cut-offs 1: Elevation (-90.0deg=NO ),Airmass (>38.000=NO), Daylight (YES)
Table cut-offs 2: Solar elongation (  0.0,180.0=NO ),Local Hour Angle( 0.0=NO )
Table cut-offs 3: RA/DEC angular rate (     0.0=NO )                           
*******************************************************************************
Initial IAU76/J2000 heliocentric ecliptic osculating elements (au, days, deg.):
  EPOCH=  2458369.5 ! 2018-Sep-08.00 (TDB)         Residual RMS= .84866        
   EC= .2426621660028976   QR= .647471518312811    TP= 2458473.8617576878      
   OM= 346.8893436915528   W=  145.8737085184167   IN= 1.612045057594462       
  Equivalent ICRF heliocentric cartesian coordinates (au, au/d):
   X= 9.781363708094483E-01  Y=-2.377942828764822E-01  Z=-1.040448782093900E-01
  VX= 1.501011538102481E-03 VY= 1.393070215815854E-02 VZ= 6.509326736836346E-03
Asteroid physical parameters (km, seconds, rotational period in hours):        
   GM= n.a.                RAD= n.a.               ROTPER= .16548              
   H= 24.93                G= .150                 B-V= n.a.                   
                           ALBEDO= n.a.            STYP= n.a.                  
*******************************************************************************
 Date__(UT)__HR:MN     R.A._________(ICRF)_________DEC
******************************************************
$$SOE
 2018-Nov-22 10:00  m  13 33 52.497263 -05 52 56.92945
 2018-Nov-22 10:01  m  13 33 52.579881 -05 52 57.66195
 2018-Nov-22 10:02  m  13 33 52.662485 -05 52 58.39450
 2018-Nov-22 10:03  m  13 33 52.745074 -05 52 59.12710
 2018-Nov-22 10:04  m  13 33 52.827648 -05 52 59.85975
 2018-Nov-22 10:05  m  13 33 52.910207 -05 53 00.59244
 2018-Nov-22 10:06  m  13 33 52.992751 -05 53 01.32518
 2018-Nov-22 10:07  m  13 33 53.075280 -05 53 02.05797
 2018-Nov-22 10:08  m  13 33 53.157794 -05 53 02.79080
 2018-Nov-22 10:09  m  13 33 53.240292 -05 53 03.52368
 2018-Nov-22 10:10  m  13 33 53.322774 -05 53 04.25661
 2018-Nov-22 10:11  m  13 33 53.405241 -05 53 04.98958
 2018-Nov-22 10:12  m  13 33 53.487693 -05 53 05.72260
 2018-Nov-22 10:13  m  13 33 53.570128 -05 53 06.45567
 2018-Nov-22 10:14  m  13 33 53.652547 -05 53 07.18878
 2018-Nov-22 10:15  m  13 33 53.734951 -05 53 07.92193
 2018-Nov-22 10:16  m  13 33 53.817338 -05 53 08.65514
 2018-Nov-22 10:17  m  13 33 53.899709 -05 53 09.38839
 2018-Nov-22 10:18  m  13 33 53.982064 -05 53 10.12168
 2018-Nov-22 10:19  m  13 33 54.064402 -05 53 10.85502
 2018-Nov-22 10:20  m  13 33 54.146723 -05 53 11.58841
 2018-Nov-22 10:21  m  13 33 54.229028 -05 53 12.32184
 2018-Nov-22 10:22  m  13 33 54.311316 -05 53 13.05532
 2018-Nov-22 10:23  m  13 33 54.393587 -05 53 13.78884
 2018-Nov-22 10:24  m  13 33 54.475841 -05 53 14.52240
 2018-Nov-22 10:25  m  13 33 54.558078 -05 53 15.25602
 2018-Nov-22 10:26  m  13 33 54.640298 -05 53 15.98967
 2018-Nov-22 10:27  m  13 33 54.722501 -05 53 16.72337
 2018-Nov-22 10:28  m  13 33 54.804686 -05 53 17.45711
 2018-Nov-22 10:29  m  13 33 54.886853 -05 53 18.19090
 2018-Nov-22 10:30  m  13 33 54.969003 -05 53 18.92474
 2018-Nov-22 10:31  m  13 33 55.051135 -05 53 19.65861
 2018-Nov-22 10:32  m  13 33 55.133250 -05 53 20.39253
 2018-Nov-22 10:33  m  13 33 55.215346 -05 53 21.12650
 2018-Nov-22 10:34  m  13 33 55.297425 -05 53 21.86050
 2018-Nov-22 10:35  m  13 33 55.379485 -05 53 22.59455
 2018-Nov-22 10:36  m  13 33 55.461527 -05 53 23.32865
 2018-Nov-22 10:37  m  13 33 55.543551 -05 53 24.06279
 2018-Nov-22 10:38  m  13 33 55.625556 -05 53 24.79697
 2018-Nov-22 10:39  m  13 33 55.707543 -05 53 25.53119
 2018-Nov-22 10:40  m  13 33 55.789511 -05 53 26.26546
 2018-Nov-22 10:41  m  13 33 55.871460 -05 53 26.99977
 2018-Nov-22 10:42  m  13 33 55.953391 -05 53 27.73412
 2018-Nov-22 10:43  m  13 33 56.035303 -05 53 28.46851
 2018-Nov-22 10:44  m  13 33 56.117196 -05 53 29.20295
 2018-Nov-22 10:45  m  13 33 56.199069 -05 53 29.93742
 2018-Nov-22 10:46  m  13 33 56.280924 -05 53 30.67194
 2018-Nov-22 10:47  m  13 33 56.362759 -05 53 31.40650
 2018-Nov-22 10:48  m  13 33 56.444574 -05 53 32.14111
 2018-Nov-22 10:49  m  13 33 56.526371 -05 53 32.87575
 2018-Nov-22 10:50  m  13 33 56.608147 -05 53 33.61044
 2018-Nov-22 10:51  m  13 33 56.689904 -05 53 34.34517
 2018-Nov-22 10:52  m  13 33 56.771642 -05 53 35.07993
 2018-Nov-22 10:53  m  13 33 56.853359 -05 53 35.81474
 2018-Nov-22 10:54  m  13 33 56.935057 -05 53 36.54959
 2018-Nov-22 10:55  m  13 33 57.016734 -05 53 37.28448
 2018-Nov-22 10:56  m  13 33 57.098391 -05 53 38.01941
 2018-Nov-22 10:57  m  13 33 57.180028 -05 53 38.75438
 2018-Nov-22 10:58  m  13 33 57.261645 -05 53 39.48940
 2018-Nov-22 10:59  m  13 33 57.343241 -05 53 40.22445
 2018-Nov-22 11:00  m  13 33 57.424817 -05 53 40.95954
 2018-Nov-22 11:01  m  13 33 57.506373 -05 53 41.69467
 2018-Nov-22 11:02  m  13 33 57.587907 -05 53 42.42984
 2018-Nov-22 11:03  m  13 33 57.669421 -05 53 43.16505
 2018-Nov-22 11:04  m  13 33 57.750914 -05 53 43.90030
 2018-Nov-22 11:05  m  13 33 57.832386 -05 53 44.63559
 2018-Nov-22 11:06  m  13 33 57.913837 -05 53 45.37091
 2018-Nov-22 11:07  m  13 33 57.995267 -05 53 46.10628
 2018-Nov-22 11:08  m  13 33 58.076676 -05 53 46.84169
 2018-Nov-22 11:09  m  13 33 58.158063 -05 53 47.57713
 2018-Nov-22 11:10  m  13 33 58.239429 -05 53 48.31261
 2018-Nov-22 11:11  m  13 33 58.320774 -05 53 49.04813
 2018-Nov-22 11:12  m  13 33 58.402097 -05 53 49.78369
 2018-Nov-22 11:13  m  13 33 58.483399 -05 53 50.51928
 2018-Nov-22 11:14  m  13 33 58.564678 -05 53 51.25492
 2018-Nov-22 11:15  m  13 33 58.645936 -05 53 51.99059
 2018-Nov-22 11:16  m  13 33 58.727173 -05 53 52.72630
 2018-Nov-22 11:17  m  13 33 58.808387 -05 53 53.46204
 2018-Nov-22 11:18  m  13 33 58.889579 -05 53 54.19782
 2018-Nov-22 11:19  m  13 33 58.970749 -05 53 54.93364
 2018-Nov-22 11:20  m  13 33 59.051897 -05 53 55.66950
 2018-Nov-22 11:21  m  13 33 59.133022 -05 53 56.40539
 2018-Nov-22 11:22  m  13 33 59.214126 -05 53 57.14132
 2018-Nov-22 11:23  m  13 33 59.295206 -05 53 57.87729
 2018-Nov-22 11:24  m  13 33 59.376265 -05 53 58.61329
 2018-Nov-22 11:25  m  13 33 59.457300 -05 53 59.34933
 2018-Nov-22 11:26  m  13 33 59.538313 -05 54 00.08540
 2018-Nov-22 11:27  m  13 33 59.619304 -05 54 00.82151
 2018-Nov-22 11:28  m  13 33 59.700271 -05 54 01.55765
 2018-Nov-22 11:29  m  13 33 59.781216 -05 54 02.29383
 2018-Nov-22 11:30  m  13 33 59.862137 -05 54 03.03005
 2018-Nov-22 11:31  m  13 33 59.943036 -05 54 03.76630
 2018-Nov-22 11:32  m  13 34 00.023911 -05 54 04.50258
 2018-Nov-22 11:33  m  13 34 00.104763 -05 54 05.23890
 2018-Nov-22 11:34  m  13 34 00.185592 -05 54 05.97525
 2018-Nov-22 11:35  m  13 34 00.266398 -05 54 06.71164
 2018-Nov-22 11:36  m  13 34 00.347180 -05 54 07.44806
 2018-Nov-22 11:37  m  13 34 00.427938 -05 54 08.18452
 2018-Nov-22 11:38  m  13 34 00.508673 -05 54 08.92101
 2018-Nov-22 11:39  m  13 34 00.589385 -05 54 09.65753
 2018-Nov-22 11:40  m  13 34 00.670073 -05 54 10.39409
 2018-Nov-22 11:41  m  13 34 00.750737 -05 54 11.13068
 2018-Nov-22 11:42  m  13 34 00.831377 -05 54 11.86730
 2018-Nov-22 11:43  m  13 34 00.911993 -05 54 12.60395
 2018-Nov-22 11:44  m  13 34 00.992585 -05 54 13.34064
 2018-Nov-22 11:45  m  13 34 01.073153 -05 54 14.07736
 2018-Nov-22 11:46  m  13 34 01.153697 -05 54 14.81412
 2018-Nov-22 11:47  m  13 34 01.234217 -05 54 15.55090
 2018-Nov-22 11:48  m  13 34 01.314712 -05 54 16.28772
 2018-Nov-22 11:49  m  13 34 01.395183 -05 54 17.02457
 2018-Nov-22 11:50  m  13 34 01.475630 -05 54 17.76145
 2018-Nov-22 11:51  m  13 34 01.556053 -05 54 18.49836
 2018-Nov-22 11:52  m  13 34 01.636450 -05 54 19.23530
 2018-Nov-22 11:53  m  13 34 01.716823 -05 54 19.97228
 2018-Nov-22 11:54  m  13 34 01.797172 -05 54 20.70928
 2018-Nov-22 11:55  m  13 34 01.877496 -05 54 21.44632
 2018-Nov-22 11:56  m  13 34 01.957795 -05 54 22.18339
 2018-Nov-22 11:57  m  13 34 02.038069 -05 54 22.92048
 2018-Nov-22 11:58  m  13 34 02.118318 -05 54 23.65761
 2018-Nov-22 11:59  m  13 34 02.198543 -05 54 24.39477
 2018-Nov-22 12:00  m  13 34 02.278742 -05 54 25.13195
 2018-Nov-22 12:01  m  13 34 02.358916 -05 54 25.86917
 2018-Nov-22 12:02  m  13 34 02.439065 -05 54 26.60642
